OBJECT_NAME,OBJECT_ID,EPOCH,MEAN_MOTION,ECCENTRICITY,INCLINATION,RA_OF_ASC_NODE,ARG_OF_PERICENTER,MEAN_ANOMALY,EPHEMERIS_TYPE,CLASSIFICATION_TYPE,NORAD_CAT_ID,ELEMENT_SET_NO,REV_AT_EPOCH,BSTAR,MEAN_MOTION_DOT,MEAN_MOTION_DDOT
STARLINK-5276,2023-014J,2023-06-14T00:57:31.895136,15.69925248,.000337,69.9982,74.7555,264.5807,95.5005,0,U,55399,999,2113,.19297E-6,-.19E-5,0
STARLINK-5632,2023-014K,2023-06-13T18:51:17.022816,15.69921847,.000309,69.9981,75.4734,262.7767,97.3077,0,U,55400,999,2109,.13836E-4,.1451E-4,0
STARLINK-5076,2023-014L,2023-06-14T00:57:40.733856,15.69929478,.0003392,69.9981,74.7565,265.0578,95.0231,0,U,55401,999,2113,.37173E-5,.234E-5,0
STARLINK-5071,2023-014M,2023-06-13T03:34:03.881856,15.69919372,.0003244,69.9981,77.2642,264.0098,96.0728,0,U,55402,999,2193,.33197E-4,.378E-4,0
STARLINK-5597,2023-014N,2023-06-14T00:58:08.171040,15.69926045,.0003525,69.9981,74.7577,268.0071,92.0721,0,U,55403,999,2113,.50133E-5,.39E-5,0
STARLINK-5607,2023-014P,2023-06-14T04:02:24.175968,15.69918996,.0003476,69.9979,74.4000,263.8406,96.2393,0,U,55404,999,2115,.68291E-5,.608E-5,0
STARLINK-5623,2023-014Q,2023-06-14T04:01:57.126720,15.69921742,.0003267,69.9982,74.3989,260.8148,99.2678,0,U,55405,999,2115,.38471E-5,.25E-5,0
STARLINK-5630,2023-014R,2023-06-14T05:34:27.488640,15.69927391,.0002932,70.0003,74.2225,275.5538,84.5324,0,U,55406,999,2116,.72041E-5,.654E-5,0
STARLINK-5019,2023-014S,2023-06-14T04:02:14.741952,15.69927832,.0003222,69.9994,74.3992,267.7408,92.3419,0,U,55407,999,2115,.53534E-5,.431E-5,0
STARLINK-5092,2023-014T,2023-06-13T18:52:20.653824,15.69924699,.0003159,70.0000,75.4749,264.7481,95.3354,0,U,55408,999,2109,.16494E-4,.1771E-4,0
STARLINK-5047,2023-014U,2023-06-13T18:52:02.417376,15.69927825,.0003277,69.9980,75.4761,260.3599,99.7226,0,U,55409,999,2109,-.26033E-5,-.526E-5,0
STARLINK-5633,2023-014V,2023-06-14T01:47:45.754368,14.98357515,.0002701,70.0003,84.6755,261.2680,98.8174,0,U,55410,999,2183,-.42525E-3,-.5167E-4,0
STARLINK-5605,2023-014W,2023-06-14T05:34:46.094016,15.69921895,.0002429,70.0004,74.2206,289.9777,70.1157,0,U,55411,999,2116,.37009E-5,.233E-5,0
STARLINK-5033,2023-014X,2023-06-14T03:29:54.457152,14.98348619,.000294,69.9999,84.5230,269.1104,90.9718,0,U,55412,999,2090,-.32655E-3,-.3989E-4,0
STARLINK-5060,2023-014Y,2023-06-14T01:41:45.433536,14.98333335,.000301,69.9998,84.6604,268.9016,91.1798,0,U,55413,999,2089,.38044E-4,.361E-5,0
STARLINK-5620,2023-014Z,2023-06-14T05:18:04.319712,14.98331523,.0002775,69.9999,84.3829,271.9547,88.1295,0,U,55414,999,2185,.19863E-4,.144E-5,0
STARLINK-5618,2023-014AA,2023-06-14T01:41:59.836416,14.98330262,.0003066,70.0010,84.6628,266.5645,93.5164,0,U,55415,999,2089,.45949E-4,.455E-5,0
STARLINK-5624,2023-014AB,2023-06-13T18:17:09.215808,14.98332206,.0002485,70.0004,85.5894,267.7843,92.3032,0,U,55416,999,2178,.11039E-4,.39E-6,0
STARLINK-5616,2023-014AC,2023-06-13T05:10:02.609472,14.98334293,.0002619,69.9998,86.8938,269.9120,90.1739,0,U,55417,999,2170,-.44888E-4,-.629E-5,0
STARLINK-5030,2023-014AD,2023-06-14T04:05:58.743456,14.98334986,.0002821,69.9997,84.6089,268.9134,91.1701,0,U,55418,999,2090,.20157E-4,.148E-5,0
STARLINK-5629,2023-014AE,2023-06-13T05:22:04.420128,14.98326112,.0002656,70.0023,86.9213,266.6286,93.4569,0,U,55419,999,2170,-.84297E-5,-.193E-5,0
STARLINK-5604,2023-014AF,2023-06-14T00:56:10.390560,15.69920810,.0003435,69.9982,74.7745,266.3997,93.6806,0,U,55420,999,2113,.25829E-5,.98E-6,0
STARLINK-5598,2023-014AG,2023-06-14T00:47:41.849664,14.98333473,.0002657,70.0003,84.9316,264.6253,95.4603,0,U,55421,999,2182,.56551E-4,.582E-5,0
STARLINK-5006,2023-014AH,2023-06-14T06:23:55.914432,14.97526321,.0002867,69.9989,84.1427,272.0760,88.0070,0,U,55422,999,2092,.54779E-4,.548E-5,0
STARLINK-5068,2023-014AJ,2023-06-14T04:06:11.776896,14.98639075,.0003188,70.0001,84.6098,270.0228,90.0566,0,U,55423,999,2090,-.4433E-2,-.53012E-3,0
STARLINK-5615,2023-014AL,2023-06-13T18:35:23.143488,14.98694901,.0003131,70.0011,85.6367,265.1993,94.8809,0,U,55425,999,2178,-.51991E-2,-.62166E-3,0
STARLINK-5638,2023-014AM,2023-06-13T18:59:17.386080,14.98650065,.0003151,70.0000,85.6924,266.4878,93.5921,0,U,55426,999,2178,-.489E-2,-.58439E-3,0
STARLINK-5073,2023-014AN,2023-06-14T06:00:00.999648,14.98323825,.0003067,70.0015,84.4585,269.9280,112.1686,0,U,55427,999,2091,.56221E-3,.6621E-4,0
STARLINK-5064,2023-014AP,2023-06-13T19:12:19.704384,14.99299223,.0002978,69.9999,85.7250,270.1200,89.9618,0,U,55428,999,2084,.59927E-4,.639E-5,0
STARLINK-5645,2023-014AQ,2023-06-14T14:00:01.000224,14.98295521,.0003026,70.0018,83.6687,267.0856,67.4871,0,U,55429,999,2096,.52723E-2,.6333E-3,0
STARLINK-5642,2023-014AR,2023-06-14T02:42:11.251008,14.98329797,.0003238,69.9996,104.6684,271.2482,88.8306,0,U,55430,999,2040,.78807E-4,.847E-5,0
