STARLINK-5276           
1 55399U 23014J   23165.03995249 -.00000190  00000+0  19297-6 0  9993
2 55399  69.9982  74.7555 0003370 264.5807  95.5005 15.69925248 21136
STARLINK-5632           
1 55400U 23014K   23164.78561369  .00001451  00000+0  13836-4 0  9990
2 55400  69.9981  75.4734 0003090 262.7767  97.3077 15.69921847 21094
STARLINK-5076           
1 55401U 23014L   23165.04005479  .00000234  00000+0  37173-5 0  9995
2 55401  69.9981  74.7565 0003392 265.0578  95.0231 15.69929478 21130
STARLINK-5071           
1 55402U 23014M   23164.14865604  .00003780  00000+0  33197-4 0  9990
2 55402  69.9981  77.2642 0003244 264.0098  96.0728 15.69919372 21939
STARLINK-5597           
1 55403U 23014N   23165.04037235  .00000390  00000+0  50133-5 0  9996
2 55403  69.9981  74.7577 0003525 268.0071  92.0721 15.69926045 21132
STARLINK-5607           
1 55404U 23014P   23165.16833537  .00000608  00000+0  68291-5 0  9995
2 55404  69.9979  74.4000 0003476 263.8406  96.2393 15.69918996 21157
STARLINK-5623           
1 55405U 23014Q   23165.16802230  .00000250  00000+0  38471-5 0  9992
2 55405  69.9982  74.3989 0003267 260.8148  99.2678 15.69921742 21157
STARLINK-5630           
1 55406U 23014R   23165.23226260  .00000654  00000+0  72041-5 0  9993
2 55406  70.0003  74.2225 0002932 275.5538  84.5324 15.69927391 21163
STARLINK-5019           
1 55407U 23014S   23165.16822618  .00000431  00000+0  53534-5 0  9994
2 55407  69.9994  74.3992 0003222 267.7408  92.3419 15.69927832 21155
STARLINK-5092           
1 55408U 23014T   23164.78635016  .00001771  00000+0  16494-4 0  9997
2 55408  70.0000  75.4749 0003159 264.7481  95.3354 15.69924699 21098
STARLINK-5047           
1 55409U 23014U   23164.78613909 -.00000526  00000+0 -26033-5 0  9995
2 55409  69.9980  75.4761 0003277 260.3599  99.7226 15.69927825 21090
STARLINK-5633           
1 55410U 23014V   23165.07483512 -.00005167  00000+0 -42525-3 0  9993
2 55410  70.0003  84.6755 0002701 261.2680  98.8174 14.98357515 21836
STARLINK-5605           
1 55411U 23014W   23165.23247794  .00000233  00000+0  37009-5 0  9992
2 55411  70.0004  74.2206 0002429 289.9777  70.1157 15.69921895 21162
STARLINK-5033           
1 55412U 23014X   23165.14576918 -.00003989  00000+0 -32655-3 0  9999
2 55412  69.9999  84.5230 0002940 269.1104  90.9718 14.98348619 20908
STARLINK-5060           
1 55413U 23014Y   23165.07066474  .00000361  00000+0  38044-4 0  9991
2 55413  69.9998  84.6604 0003010 268.9016  91.1798 14.98333335 20890
STARLINK-5620           
1 55414U 23014Z   23165.22088333  .00000144  00000+0  19863-4 0  9994
2 55414  69.9999  84.3829 0002775 271.9547  88.1295 14.98331523 21850
STARLINK-5618           
1 55415U 23014AA  23165.07083144  .00000455  00000+0  45949-4 0  9992
2 55415  70.0010  84.6628 0003066 266.5645  93.5164 14.98330262 20898
STARLINK-5624           
1 55416U 23014AB  23164.76191222  .00000039  00000+0  11039-4 0  9996
2 55416  70.0004  85.5894 0002485 267.7843  92.3032 14.98332206 21784
STARLINK-5616           
1 55417U 23014AC  23164.21530798 -.00000629  00000+0 -44888-4 0  9997
2 55417  69.9998  86.8938 0002619 269.9120  90.1739 14.98334293 21708
STARLINK-5030           
1 55418U 23014AD  23165.17081879  .00000148  00000+0  20157-4 0  9992
2 55418  69.9997  84.6089 0002821 268.9134  91.1701 14.98334986 20900
STARLINK-5629           
1 55419U 23014AE  23164.22366227 -.00000193  00000+0 -84297-5 0  9999
2 55419  70.0023  86.9213 0002656 266.6286  93.4569 14.98326112 21705
STARLINK-5604           
1 55420U 23014AF  23165.03900915  .00000098  00000+0  25829-5 0  9997
2 55420  69.9982  74.7745 0003435 266.3997  93.6806 15.69920810 21132
STARLINK-5598           
1 55421U 23014AG  23165.03312326  .00000582  00000+0  56551-4 0  9994
2 55421  70.0003  84.9316 0002657 264.6253  95.4603 14.98333473 21823
STARLINK-5006           
1 55422U 23014AH  23165.26661938  .00000548  00000+0  54779-4 0  9998
2 55422  69.9989  84.1427 0002867 272.0760  88.0070 14.97526321 20929
STARLINK-5068           
1 55423U 23014AJ  23165.17096964 -.00053012  00000+0 -44330-2 0  9996
2 55423  70.0001  84.6098 0003188 270.0228  90.0566 14.98639075 20904
STARLINK-5615           
1 55425U 23014AL  23164.77457342 -.00062166  00000+0 -51991-2 0  9995
2 55425  70.0011  85.6367 0003131 265.1993  94.8809 14.98694901 21787
STARLINK-5638           
1 55426U 23014AM  23164.79117345 -.00058439  00000+0 -48900-2 0  9998
2 55426  70.0000  85.6924 0003151 266.4878  93.5921 14.98650065 21787
STARLINK-5073           
1 55427U 23014AN  23165.25001157  .00006621  00000+0  56221-3 0  9994
2 55427  70.0015  84.4585 0003067 269.9280 112.1686 14.98323825 20916
STARLINK-5064           
1 55428U 23014AP  23164.80022806  .00000639  00000+0  59927-4 0  9999
2 55428  69.9999  85.7250 0002978 270.1200  89.9618 14.99299223 20847
STARLINK-5645           
1 55429U 23014AQ  23165.58334491  .00063330  00000+0  52723-2 0  9994
2 55429  70.0018  83.6687 0003026 267.0856  67.4871 14.98295521 20962
STARLINK-5642           
1 55430U 23014AR  23165.11263022  .00000847  00000+0  78807-4 0  9993
2 55430  69.9996 104.6684 0003238 271.2482  88.8306 14.98329797 20406
